[{"OBJECT_NAME":"STARLINK-35809","OBJECT_ID":"2025-254AB","EPOCH":"2026-03-09T17:17:47.380128","MEAN_MOTION":15.30203479,"ECCENTRICITY":0.00011798,"INCLINATION":53.1589,"RA_OF_ASC_NODE":229.9053,"ARG_OF_PERICENTER":68.321,"MEAN_ANOMALY":291.7917,"EPHEMERIS_TYPE":0,"CLASSIFICATION_TYPE":"U","NORAD_CAT_ID":66373,"ELEMENT_SET_NO":999,"REV_AT_EPOCH":1901,"BSTAR":0.00094978282,"MEAN_MOTION_DOT":0.00027879,"MEAN_MOTION_DDOT":0},{"OBJECT_NAME":"KUIPER-00223","OBJECT_ID":"2026-030V","EPOCH":"2026-03-09T17:18:46.022400","MEAN_MOTION":15.34146211,"ECCENTRICITY":0.00128242,"INCLINATION":51.8827,"RA_OF_ASC_NODE":219.2782,"ARG_OF_PERICENTER":59.0052,"MEAN_ANOMALY":301.2192,"EPHEMERIS_TYPE":0,"CLASSIFICATION_TYPE":"U","NORAD_CAT_ID":67783,"ELEMENT_SET_NO":999,"REV_AT_EPOCH":509,"BSTAR":0.00090645373,"MEAN_MOTION_DOT":0.00030225,"MEAN_MOTION_DDOT":0}]
