STARLINK-35809          
1 66373U 25254AB  26068.72068727  .00027879  00000+0  94978-3 0  9996
2 66373  53.1589 229.9053 0001179  68.3210 291.7917 15.30203479 19017
KUIPER-00223            
1 67783U 26030V   26068.72136600  .00030225  00000+0  90645-3 0  9997
2 67783  51.8827 219.2782 0012824  59.0052 301.2192 15.34146211  5093
